id,category,satellite_name,tle_line1,tle_line2,inclination,eccentricity,period,perigee,apogee,epoch,raan,arg_perigee,mean_anomaly,mean_motion,semi_major_axis,velocity,orbit_type,satellite_age,bstar,rev_num,norad_number,ephemeris_type,intl_designator
8086,active,STARLINK-31084,1 58630U 23203N   25017.09085108  .00000524  00000+0  29868-4 0  9995,2 58630  42.9985 259.3275 0001537 266.6067  93.4608 15.25908276 59855,42.9985,0.0001537,94.37002358849517,487.14107422745747,489.2517430034668,2025-01-17 02:10:49.533312,259.3275,266.6067,15.25908276,15.25908276,6866.196408615462,7.619224613623568,LEO,2,2.9868000000000003e-05,5985,58630,0,23203N
8087,active,STARLINK-31064,1 58631U 23203P   25017.34816438  .00000166  00000+0  16195-4 0  9993,2 58631  42.9987 257.8214 0001179 260.7014  99.3704 15.25908112 61060,42.9987,0.0001179,94.37003373110059,487.3873759729231,489.006425202082,2025-01-17 08:21:21.402432,257.8214,260.7014,15.25908112,15.25908112,6866.196900587503,7.61922434065983,LEO,2,1.6195000000000003e-05,6106,58631,0,23203P
8089,active,STARLINK-31022,1 58633U 23203R   25017.35042252  .00001434  00000+0  64667-4 0  9997,2 58633  42.9995 257.8351 0001319 266.3527  93.7173 15.25909354 61124,42.9995,0.0001319,94.36995691947243,487.2875239216828,489.0988256811943,2025-01-17 08:24:36.505728,257.8351,266.3527,15.25909354,15.25909354,6866.1931748014385,7.619226407860336,LEO,2,6.4667e-05,6112,58633,0,23203R
8091,active,STARLINK-31018,1 58635U 23203T   25017.38888226  .00000498  00000+0  28878-4 0  9994,2 58635  43.0000 258.1417 0000789 247.1155 112.9612 15.25903232 61127,43,7.89e-05,94.37033553645425,487.6697957053684,488.753283886349,2025-01-17 09:19:59.427264,258.1417,247.11550000000003,15.25903232,15.25903232,6866.211539795859,7.619216218315256,LEO,2,2.8878e-05,6112,58635,0,23203T
8093,active,STARLINK-31077,1 58637U 23203V   25017.05933040  .00000404  00000+0  25278-4 0  9993,2 58637  43.0002 259.9671 0000745 251.2325 108.8445 15.25899470 61079,43.0002,7.45e-05,94.37056820001385,487.7112916383594,488.7343588393196,2025-01-17 01:25:26.14656,259.9671000000001,251.23250000000002,15.2589947,15.2589947,6866.2228252388395,7.619209956774689,LEO,2,2.5278e-05,6107,58637,0,23203V
8094,active,STARLINK-31078,1 58638U 23203W   25017.05480321 -.00000135  00000+0  46767-5 0  9992,2 58638  43.0020 259.9302 0000813 287.0245  73.0517 15.25907057 59841,43.002,8.13e-05,94.37009897779116,487.6418433444296,488.7582874750651,2025-01-17 01:18:54.997344,259.93020000000007,287.0245,15.25907057,15.25907057,6866.200065409747,7.619222584703607,LEO,2,4.6767000000000005e-06,5984,58638,0,23203W
7767,active,STARLINK-30848,1 58240U 23171L   25017.30222279  .00000997  00000+0  88825-4 0  9994,2 58240  43.0013  29.9046 0000672 253.6559 106.4209 15.02538331 67075,43.0013,6.72e-05,95.83782125821854,558.7431781032665,559.675539041059,2025-01-17 07:15:12.049056,29.9046,253.65590000000003,15.02538331,15.02538331,6937.209358572163,7.5801270908085465,LEO,2,8.8825e-05,6707,58240,0,23171L
8104,active,BEIDOU-3 M28,1 58654U 23207A   25017.28494035 -.00000043  00000+0  00000+0 0  9998,2 58654  55.2905  79.7739 0003726 272.9207  87.1012  1.86232057  7230,55.2905,0.0003726,773.228853934637,21517.685165562045,21538.48077859283,2025-01-17 06:50:18.84624,79.7739,272.92070000000007,1.86232057,1.86232057,27906.082972077438,3.77937031231363,MEO,2,0,723,58654,0,23207A
8105,active,BEIDOU-3 M26,1 58655U 23207B   25015.47356232 -.00000040  00000+0  00000+0 0  9991,2 58655  55.2909  79.8214 0004777 258.6095 101.3998  1.86231460  7180,55.2909,0.0004777,773.2313326652758,21514.811846521592,21541.473375171994,2025-01-15 11:21:55.784448,79.8214,258.6095,1.8623146,1.8623146,27906.142610846793,3.7793662738279474,MEO,4,0,718,58655,0,23207B
3960,active,STARLINK-3706,1 52105U 22029T   25017.57710824  .00000559  00000+0  53207-4 0  9996,2 52105  53.2182 147.1170 0001538 105.8493 254.2669 15.08841003157966,53.2182,0.0001538,95.43749123578132,538.8133536637497,540.9412927283647,2025-01-17 13:51:02.151936,147.117,105.8493,254.2669,15.08841003,6917.877323196057,7.590711049216407,LEO,2,5.320700000000001e-05,15796,52105,0,22029T
8107,active,TIANMU-1 19,1 58660U 23208A   25017.52852477  .00012697  00000+0  58311-3 0  9990,2 58660  97.4194 131.4859 0005810 347.2662  12.8425 15.20513491 58675,97.4194,0.000581,94.70484862669332,500.42898216046797,508.42636311607384,2025-01-17 12:41:04.540128,131.4859,347.2662,15.20513491,15.20513491,6882.427672638271,7.610234860819025,LEO,2,0.0005831100000000001,5867,58660,0,23208A
8110,active,TIANMU-1 22,1 58663U 23208D   25017.58798974  .00012075  00000+0  55189-3 0  9990,2 58663  97.4187 131.6433 0004806  15.3080 344.8300 15.20697337 58695,97.41870000000002,0.0004806,94.69339920334193,500.56552868007293,507.1803849661719,2025-01-17 14:06:42.313536,131.64330000000004,15.308,15.20697337,15.20697337,6881.872956823123,7.610541567481221,LEO,2,0.00055189,5869,58663,0,23208D
8112,active,STARLINK-31113,1 58668U 23211B   25017.09913229 -.00000782  00000+0 -20066-4 0  9998,2 58668  43.0004 276.1444 0000973 275.6018  84.4722 15.25899877 58777,43.0004,9.73e-05,94.3705430287547,487.5535209347672,488.88968765896243,2025-01-17 02:22:45.029856,276.1444,275.6018,15.25899877,15.25899877,6866.221604296865,7.619210634193317,LEO,2,-2.0066e-05,5877,58668,0,23211B
8113,active,STARLINK-31128,1 58669U 23211C   25017.14649817  .00001145  00000+0  53647-4 0  9997,2 58669  43.0010 275.6252 0000679 270.3525  89.7249 15.25887020 58784,43.001,6.79e-05,94.37133818727942,487.7939546603202,488.7263927919121,2025-01-17 03:30:57.441888,275.6252,270.3525,15.2588702,15.2588702,6866.260173726117,7.619189234697029,LEO,2,5.3647e-05,5878,58669,0,23211C
8097,active,TIANMU-1 11,1 58645U 23205A   25017.60147709  .00008834  00000+0  41827-3 0  9996,2 58645  97.3864  43.5828 0011297  26.9625 333.2195 15.19516612 59026,97.3864,0.0011297,94.76697975053135,499.65900970155417,515.215967162917,2025-01-17 14:26:07.620576,43.5828,26.9625,15.19516612,15.19516612,6885.437488432236,7.6085713565890725,LEO,2,0.00041827,5902,58645,0,23205A
8116,active,STARLINK-31104,1 58672U 23211F   25016.45130447  .00003290  00000+0  13552-3 0  9991,2 58672  43.0019 279.8892 0001982 260.6497  99.4130 15.25921206 59953,43.0019,0.0001982,94.36922393750389,486.7967486567077,489.51849353771195,2025-01-16 10:49:52.706208,279.8892,260.6497,15.25921206,15.25921206,6866.15762109721,7.619246134422587,LEO,3,0.00013552,5995,58672,0,23211F
8117,active,STARLINK-31131,1 58673U 23211G   25017.06117423 -.00000997  00000+0 -28302-4 0  9992,2 58673  43.0012 267.0439 0000918 258.5314 101.5434 15.25905563 60159,43.0012,9.18e-05,94.37019137468076,487.5742295868349,488.8348647416942,2025-01-17 01:28:05.453472,267.0439,258.5314,15.25905563,15.25905563,6866.204547164264,7.6192200980684825,LEO,2,-2.8302e-05,6015,58673,0,23211G
8118,active,STARLINK-31124,1 58674U 23211H   25017.55506582  .00008685  00000+0  34138-3 0  9998,2 58674  43.0010 273.5472 0001189 287.0893  72.9827 15.25917476 58843,43.001,0.0001189,94.36945461656144,487.35242285351615,488.9851977966118,2025-01-17 13:19:17.686848,273.54720000000003,287.0893,15.25917476,15.25917476,6866.168810325064,7.619239926192193,LEO,2,0.00034138,5884,58674,0,23211H
8121,active,STARLINK-31058,1 58677U 23211L   25016.76731419 -.00000794  00000+0 -20539-4 0  9998,2 58677  42.9966 277.9464 0000249 293.6654  66.4171 15.25906127 58725,42.9966,2.49e-05,94.37015649390601,488.0318868049808,488.37382370717387,2025-01-16 18:24:55.946016,277.9464,293.6654,15.25906127,15.25906127,6866.202855256077,7.6192210367983995,LEO,3,-2.0539e-05,5872,58677,0,23211L
8122,active,STARLINK-31125,1 58678U 23211M   25017.05842071  .00003808  00000+0  15535-3 0  9995,2 58678  42.9991 275.8444 0000648 303.6906  56.3883 15.25902055 59943,42.9991,6.48e-05,94.37040832873116,487.77013988002636,488.6600013531788,2025-01-17 01:24:07.549344,275.84440000000006,303.6906,15.25902055,15.25902055,6866.215070616602,7.61921425929636,LEO,2,0.00015534999999999998,5994,58678,0,23211M
8124,active,STARLINK-31112,1 58680U 23211P   25016.95238327 -.00000989  00000+0 -27995-4 0  9992,2 58680  43.0024 276.7477 0001033 281.2745  78.7990 15.25899240 59939,43.0024,0.0001033,94.37058242456429,487.5142343171683,488.9327960954097,2025-01-16 22:51:25.914528,276.7477,281.2745,15.2589924,15.2589924,6866.223515206289,7.619209573958211,LEO,2,-2.7995e-05,5993,58680,0,23211P
8126,active,STARLINK-31144,1 58682U 23211R   25017.05615225  .00002878  00000+0  11989-3 0  9994,2 58682  42.9996 275.8274 0001063 264.2027  95.8703 15.25890732 58779,42.9996,0.0001063,94.37110861225153,487.5191558512479,488.9789203967521,2025-01-17 01:20:51.5544,275.8274,264.2027,15.25890732,15.25890732,6866.249038124,7.61919541305037,LEO,2,0.00011989,5877,58682,0,23211R
8127,active,STARLINK-31095,1 58683U 23211S   25017.07876542  .00002848  00000+0  11870-3 0  9994,2 58683  42.9989 275.9754 0001107 294.0834  65.9901 15.25905037 60048,42.9989,0.0001107,94.37022390535564,487.4460360615294,488.96621409762247,2025-01-17 01:53:25.332288,275.9754,294.0834,15.25905037,15.25905037,6866.206125079576,7.619219222586118,LEO,2,0.0001187,6004,58683,0,23211S
8129,active,STARLINK-31121,1 58685U 23211U   25017.06292779  .00000784  00000+0  39797-4 0  9995,2 58685  43.0005 275.8688 0001141 279.1300  80.9422 15.25910399 58775,43.0005,0.0001141,94.36989229142804,487.406607701796,488.9734722689209,2025-01-17 01:30:36.961056,275.8688,279.13,15.25910399,15.25910399,6866.190039985358,7.619228147170681,LEO,2,3.9797e-05,5877,58685,0,23211U
8131,active,STARLINK-31139,1 58688U 23211X   25017.39474803  .00004698  00000+0  18932-3 0  9999,2 58688  42.9953 274.0524 0000782 330.8765  29.2043 15.25910903 58820,42.9953,7.82e-05,94.36986112157035,487.6515921324444,488.72546401823547,2025-01-17 09:28:26.229792,274.0524,330.8765,15.25910903,15.25910903,6866.18852807534,7.619228986033952,LEO,2,0.00018931999999999998,5882,58688,0,23211X
